DIAMOND RED             
1 42783U 17036U   24048.56244813  .00134235  00000+0  11959-2 0  9996
2 42783  97.1134  86.1013 0001756 273.6234  86.4827 15.68041563370820
DIAMOND GREEN           
1 42785U 17036W   24048.57175748  .00202964  00000+0  13043-2 0  9990
2 42785  97.1082  87.2697 0001514 242.9139 117.1973 15.75634092370972
DIAMOND BLUE            
1 42786U 17036X   24048.58525632  .00162715  00000+0  12589-2 0  9996
2 42786  97.1133  86.7218 0001972 250.3986 109.7065 15.71385468370935
CICERO 6                
1 42793U 17036AE  24048.60343877  .00079179  00000+0  98937-3 0  9999
2 42793  97.1138  84.8779 0002459 276.3369  83.7608 15.59578525370841
CORVUS BC2              
1 42846U 17042X   24048.47946215  .00005884  00000+0  52201-3 0  9991
2 42846  97.3744 240.3988 0010120 103.1573 257.0779 14.96498422359382
CORVUS BC1              
1 42847U 17042Y   24048.51939342  .00004934  00000+0  43697-3 0  9994
2 42847  97.3732 240.8212 0009239 102.4321 257.7936 14.96641873359402
MIRATA                  
1 43015U 17073C   24048.56771646  .00025753  00000+0  13580-2 0  9991
2 43015  97.6108 295.1499 0186770 311.5106  47.0219 15.01683990338190
MAKERSAT 0              
1 43016U 17073D   24048.11310743  .00016981  00000+0  10318-2 0  9999
2 43016  97.5997 290.6790 0206788 329.3306  29.5957 14.94369581337811
CORVUS BC3              
1 43118U 18004H   24048.48687535  .00079161  00000+0  10045-2 0  9999
2 43118  97.2986 130.1748 0004427 316.1451  43.9454 15.59162666339957
GOMX-4B                 
1 43196U 18015E   24048.41988237  .00045998  00000+0  81349-3 0  9990
2 43196  97.5983 214.2027 0010267  37.1395 323.0565 15.50132920336743
GOMX-4A                 
1 43197U 18015F   24048.52605760  .00051513  00000+0  74181-3 0  9996
2 43197  97.5936 218.0025 0009344  27.8940 332.2813 15.55833103337013
CUBEBEL-1 (BSUSAT-1)    
1 43666U 18083E   24047.78632404  .00531898  00000+0  20559-2 0  9992
2 43666  97.3369  90.6776 0002524 267.6498  92.4484 15.85948042295153
CICERO 10               
1 43690U 18088A   24048.56849947  .00070735  00000+0  10790-2 0  9997
2 43690  85.0196 264.7299 0009403  33.8332 326.3525 15.54149291293348
PROXIMA I               
1 43694U 18088E   24048.57880835  .00093678  00000+0  10237-2 0  9990
2 43694  85.0118 258.8463 0007976 357.4321   2.6901 15.62977951293757
PROXIMA II              
1 43696U 18088G   24048.56778240  .00089884  00000+0  10042-2 0  9995
2 43696  85.0102 258.9749 0007806 355.6618   4.4577 15.62420709293732
SIRION PATHFINDER-2     
1 43759U 18099B   24048.10641492  .00006619  00000+0  51981-3 0  9998
2 43759  97.5448 107.6827 0015272 349.8612  10.2302 15.01136068284337
CORVUS BC4              
1 43767U 18099K   24048.42186596  .00006085  00000+0  48594-3 0  9994
2 43767  97.5289 105.5697 0012937  49.5045 310.7305 15.00549851284271
MOVE-II                 
1 43780U 18099Y   24048.13467073  .00018408  00000+0  11127-2 0  9992
2 43780  97.5385 112.6547 0008138  41.0461 319.1380 15.10690773284629
SPACEBEE-7              
1 43816U 18099BL  24048.43404782  .00014081  00000+0  92196-3 0  9992
2 43816  97.5659 113.8752 0010368 350.8336   9.2701 15.07804290284197
SPACEBEE-5              
1 43817U 18099BM  24048.19811407  .01300092  00000+0  50981-2 0  9998
2 43817  97.5422 131.8457 0011136 294.6871  65.3238 15.84232569285278
SPACEBEE-6              
1 43818U 18099BN  24048.40508277  .00028358  00000+0  15011-2 0  9997
2 43818  97.5574 117.5755 0009779 355.5084   4.6059 15.15349954284572
SHIELDS 1               
1 43850U 18104B   24048.58343586  .00015429  00000+0  46717-3 0  9992
2 43850  85.0273   4.7108 0012765 150.7145 209.4822 15.33961224287652
STF-1                   
1 43852U 18104D   24048.30577925  .01845989  31645-2  15929-2 0  9995
2 43852  84.9903 355.0352 0012029 133.6916 226.5375 16.14024848288605
ZACUBE-2                
1 43907U 18111AH  24048.61005711  .00131874  00000+0  11226-2 0  9991
2 43907  97.0916 290.4913 0010410  43.5738 316.6345 15.69101925287195
SONATE                  
1 44400U 19038Q   24048.44220339  .00020115  00000+0  72096-3 0  9993
2 44400  97.7084  37.7276 0018369 165.6211 194.5554 15.28608266255605
LUCKY-7                 
1 44406U 19038W   24048.44335674  .00031996  00000+0  94518-3 0  9990
2 44406  97.7016  40.4573 0016736 151.9626 208.2521 15.34753973255791
BEESAT 9                
1 44412U 19038AC  24048.46816983  .00095377  00000+0  15218-2 0  9998
2 44412  97.6871  45.8554 0013585 129.8981 230.3467 15.52778318255886
JAISAT-1                
1 44419U 19038F   24048.52970450  .00089355  00000+0  14444-2 0  9991
2 44419  97.6862  47.0112 0013076 129.1383 231.1033 15.52445887256275
DUCHIFAT-3              
1 44854U 19089C   24048.38331279  .00016876  00000+0  96242-3 0  9999
2 44854  36.9599  59.9082 0009382 189.6383 170.4184 15.12075443229955
M2 PATHFINDER           
1 45727U 20037E   24048.43627962  .00005833  00000+0  52390-3 0  9994
2 45727  97.7683 225.6501 0011921 160.6604 199.5072 14.96034792197886
NETSAT-4                
1 46504U 20068U   24048.42415744  .00013647  00000+0  79428-3 0  9997
2 46504  97.7919   2.7042 0012168  61.0040 299.2408 15.12100901185904
NETSAT-3                
1 46505U 20068V   24048.43632367  .00011319  00000+0  66722-3 0  9998
2 46505  97.7892   2.3601 0011547  68.8282 291.4181 15.11697996185901
NETSAT-1                
1 46506U 20068W   24048.44535035  .00008938  00000+0  54337-3 0  9996
2 46506  97.7916   2.0641 0010288  77.4759 282.7620 15.10659265185880
NETSAT-2                
1 46507U 20068X   24048.43428163  .00012417  00000+0  72532-3 0  9993
2 46507  97.7905   2.3879 0009685  82.5332 277.6998 15.12016868185854
WILDTRACKCUBE-SIMBA     
1 47941U 21022K   24048.59240681  .00014703  00000+0  73054-3 0  9991
2 47941  97.4747 306.7024 0015853 200.1936 159.8673 15.17650673160153
BEESAT-6                
1 47957U 21022AB  24048.46774658  .00078907  00000+0  20917-2 0  9995
2 47957  97.4629 312.6657 0011231 162.9992 197.1631 15.37974941160350
SMOG-1                  
1 47964U 21022AJ  24048.45497976  .00065336  00000+0  16799-2 0  9992
2 47964  97.4768 315.5386 0010960 149.7133 210.4748 15.38978572159532
BCCSAT-1                
1 48041U 21022AK  24048.46323143  .00048110  00000+0  15001-2 0  9990
2 48041  97.4762 313.1245 0009617 154.3429 205.8292 15.33039203159354
BEESAT-5                
1 48083U 21022AM  24047.68516383  .00097753  00000+0  23000-2 0  9994
2 48083  97.4478 312.5323 0010566 157.1368 203.0351 15.41544782159440
BEESAT-7                
1 48084U 21022AN  24048.25011975  .00069743  00000+0  18770-2 0  9992
2 48084  97.4703 312.7836 0010837 164.6150 195.5426 15.37551082159068
BEESAT-8                
1 48085U 21022AP  24048.44153307  .00028706  00000+0  11531-2 0  9992
2 48085  97.4831 309.9914 0013561 184.8430 175.2678 15.24824190159432
LEDSAT                  
1 49069U 21073D   24048.44604367  .00016145  00000+0  74142-3 0  9990
2 49069  97.4521 120.7441 0020841 351.2201   8.8666 15.20281672138084
